{
    "links": {
        "self": "http://www.neowsapp.com/rest/v1/neo/3515379?api_key=iIulBulltgU6a56xZRHN4H3l9WmuAYTsLGpBGhQ2"
    },
    "id": "3515379",
    "neo_reference_id": "3515379",
    "name": "(2010 GK23)",
    "designation": "2010 GK23",
    "nasa_jpl_url": "http://ssd.jpl.nasa.gov/sbdb.cgi?sstr=3515379",
    "absolute_magnitude_h": 19.7,
    "estimated_diameter": {
        "kilometers": {
            "estimated_diameter_min": 0.3051792326,
            "estimated_diameter_max": 0.6824015094
        },
        "meters": {
            "estimated_diameter_min": 305.1792325939,
            "estimated_diameter_max": 682.4015094011
        },
        "miles": {
            "estimated_diameter_min": 0.1896295249,
            "estimated_diameter_max": 0.4240245083
        },
        "feet": {
            "estimated_diameter_min": 1001.2442334633,
            "estimated_diameter_max": 2238.8501681036
        }
    },
    "is_potentially_hazardous_asteroid": false,
    "close_approach_data": [
        {
            "close_approach_date": "2010-03-01",
            "close_approach_date_full": "2010-Mar-01 00:45",
            "epoch_date_close_approach": 1267404300000,
            "relative_velocity": {
                "kilometers_per_second": "26.1299069152",
                "kilometers_per_hour": "94067.6648946026",
                "miles_per_hour": "58449.988778538"
            },
            "miss_distance": {
                "astronomical": "0.2380055145",
                "lunar": "92.5841451405",
                "kilometers": "35605118.017454115",
                "miles": "22123994.432792187"
            },
            "orbiting_body": "Earth"
        }
    ],
    "orbital_data": {
        "orbit_id": "16",
        "orbit_determination_date": "2020-11-11 14:05:57",
        "first_observation_date": "2010-04-04",
        "last_observation_date": "2010-04-12",
        "data_arc_in_days": 8,
        "observations_used": 48,
        "orbit_uncertainty": "9",
        "minimum_orbit_intersection": ".0969089",
        "jupiter_tisserand_invariant": "2.763",
        "epoch_osculation": "2455295.5",
        "eccentricity": ".6828013603488797",
        "semi_major_axis": "2.748528137327959",
        "inclination": "35.00071749106803",
        "ascending_node_longitude": "141.5346740999777",
        "orbital_period": "1664.365511227333",
        "perihelion_distance": ".871829386203256",
        "perihelion_argument": "342.8001288361694",
        "aphelion_distance": "4.625226888452661",
        "perihelion_time": "2455240.693128483506",
        "mean_anomaly": "11.85465188556342",
        "mean_motion": ".216298642078043",
        "equinox": "J2000",
        "orbit_class": {
            "orbit_class_type": "APO",
            "orbit_class_description": "Near-Earth asteroid orbits which cross the Earth’s orbit similar to that of 1862 Apollo",
            "orbit_class_range": "a (semi-major axis) > 1.0 AU; q (perihelion) < 1.017 AU"
        }
    },
    "is_sentry_object": false
}